C/2022 A3 (Lemmon-ATLAS),e,88.3618,325.4490,234.8963,975.4112,0.0000324,0.99620139,0.0000,09/29.1416/2023,2000,g  8.0,4.0
# From MPEC 2026-E44
P/2022 BV9 (Lemmon),e,11.9213,337.3020,16.2531,4.367251,0.1079920,0.23319539,215.6102,04/09.0/2026,2000,g  9.5,4.0
# From MPEC 2026-E44
P/2022 C1 (PANSTARRS),e,4.7635,113.0946,9.5345,7.238888,0.0506053,0.44920718,81.7230,04/09.0/2026,2000,g 12.0,4.0
# From MPEC 2026-E44
P/2022 C2 (PANSTARRS),e,9.9814,135.2466,89.1312,6.032564,0.0665198,0.44239029,89.2417,04/09.0/2026,2000,g 12.5,4.0
# From MPEC 2026-E44
P/2022 C3 (PANSTARRS),e,12.8244,139.0396,93.7846,9.615924,0.0330535,0.54567984,45.5695,04/09.0/2026,2000,g 11.5,4.0
# From MPEC 2026-E44
P/2022 D1 (PANSTARRS),e,44.0527,47.9285,88.6943,7.407794,0.0488845,0.54818498,82.3066,04/09.0/2026,2000,g 12.5,4.0
# From MPEC 2022-L66
P/2022 E1 (Christensen),e,19.0072,113.3398,114.8169,3.777564,0.1342413,0.22061821,187.9982,04/09.0/2026,2000,g 13.5,4.0
# From MPEC 2026-FC3
C/2022 E2 (ATLAS),h,09/14.2897/2024,137.1411,125.3959,41.7802,1.000639,3.667635,2000,5.0,4.0
# From MPEC 2026-E44
C/2022 E3 (ZTF),h,01/12.3268/2023,109.1815,302.4870,145.8652,1.000031,1.116498,2000,7.5,4.0
# From MPEC 2026-E44
C/2022 F1 (ATLAS),e,57.9815,350.6365,278.4003,84988,0.0000000,0.99992962,0.0000,08/06.3165/2022,2000,g  7.0,4.0
# From MPEC 2026-E44
C/2022 H1 (PANSTARRS),e,49.8646,6.3064,246.2897,860.7785,0.0000390,0.99106814,0.0000,01/18.4674/2024,2000,g  6.0,4.0
# From MPEC 2026-E44
C/2022 JK5 (PANSTARRS),e,16.8269,59.6525,247.3598,43.48197,0.0034375,0.93800328,3.7003,04/09.0/2026,2000,g 11.0,4.0
# From MPEC 2026-E44
C/2022 L2 (ATLAS),h,03/11.9532/2024,129.3094,39.2536,199.9257,1.000328,2.694261,2000,6.5,4.0
# From MPEC 2026-G41
C/2022 N2 (PANSTARRS),h,08/01.0324/2025,5.5031,319.7317,75.4448,1.003850,3.826001,2000,6.0,4.0
# From MPEC 2026-E44
C/2022 O1 (ATLAS),h,02/14.7547/2022,71.0700,49.9037,268.9302,1.000414,7.435256,2000,6.0,4.0
# From MPEC 2026-FC5
P/2022 P2 (ZTF),e,12.4417,291.1671,137.8137,4.493367,0.1034776,0.55768200,141.5677,04/09.0/2026,2000,g 12.5,4.0
# From MPEC 2026-G41
C/2022 QE78 (ATLAS),e,36.6582,119.8917,0.6576,1902,0.0000119,0.99712061,0.0000,09/12.2133/2025,2000,g  5.0,4.0
# From MPEC 2026-E44
P/2022 R1 (PANSTARRS),e,7.3898,175.5849,221.6205,7.118495,0.0518946,0.49978152,47.7122,04/09.0/2026,2000,g 11.5,4.0
# From MPEC 2026-E44
C/2022 R3 (Leonard),h,03/05.9652/2023,43.0597,8.2683,72.9596,1.001470,5.134641,2000,9.0,4.0
# From MPEC 2026-E44
P/2022 R5 (PANSTARRS),e,15.2924,115.0392,240.4765,3.070823,0.1831563,0.19449069,259.0793,04/09.0/2026,2000,g 16.0,4.0
# From MPEC 2026-G41
C/2022 R6 (PANSTARRS),h,08/27.0298/2025,57.0310,150.7774,319.9893,1.005048,6.566094,2000,5.0,4.0
# From MPEC 2026-E44
P/2022 S1 (PANSTARRS),e,34.5621,136.0848,262.8579,6.408197,0.0607576,0.50722858,80.7799,04/09.0/2026,2000,g 13.0,4.0
# From MPEC 2026-E44
C/2022 S4 (Lemmon),e,101.1997,220.1791,268.5575,1436,0.0000181,0.99807657,0.0000,07/18.7935/2024,2000,g  8.0,4.0
# From MPEC 2026-E44
C/2022 T1 (Lemmon),h,02/17.5341/2024,22.5382,236.9028,324.2973,1.000637,3.443494,2000,9.0,4.0
# From MPEC 2026-E44
C/2022 U1 (Leonard),h,03/26.2180/2024,128.1414,72.5325,78.6180,1.000658,4.201876,2000,8.5,4.0
# From MPEC 2026-E44
C/2022 U3 (Bok),e,33.6612,272.7865,189.1555,11571,0.0000008,0.99958273,0.0000,07/28.6883/2024,2000,g  7.5,4.0
# From MPEC 2026-E44
C/2022 U4 (Bok),e,52.0600,132.9184,88.9652,3146,0.0000056,0.99907954,0.0000,08/03.7501/2023,2000,g 10.5,4.0
# From MPEC 2026-E44
C/2022 V2 (Lemmon),e,98.9089,332.8325,168.9770,36.66323,0.0044397,0.94365879,3.9479,04/09.0/2026,2000,g 12.0,4.0
# From MPEC 2026-E44
P/2022 W1 (Rankin),e,13.4610,38.8420,17.9657,6.977648,0.0534737,0.51616480,69.5763,04/09.0/2026,2000,g 12.5,4.0
# From MPEC 2026-E44
C/2022 W2 (ATLAS),e,63.4912,320.4219,123.3520,340.8132,0.0001566,0.99082409,0.0000,03/08.5932/2023,2000,g 11.5,4.0
# From MPEC 2026-E43
C/2023 A3 (Tsuchinshan-ATLAS),h,09/27.7793/2024,139.1059,21.6301,308.5558,1.000166,0.391550,2000,6.5,3.2
# From MPEC 2026-E44
P/2023 B1 (PANSTARRS),e,14.5868,78.5643,81.9271,7.071255,0.0524155,0.13141706,55.9693,04/09.0/2026,2000,g  5.5,4.0
# From MPEC 2026-E44
P/2023 B3 (PANSTARRS),e,9.1557,153.9708,240.3956,4.552329,0.1014737,0.12187485,207.2283,04/09.0/2026,2000,g 10.5,4.0
# From MPEC 2026-FC3
C/2023 C2 (ATLAS),e,48.3224,301.0064,357.4224,1721,0.0000138,0.99862430,0.0000,11/16.6899/2024,2000,g  7.0,4.0
# From MPEC 2026-G41
C/2023 F3 (ATLAS),h,02/02.7157/2025,145.9628,109.4681,265.5524,1.002847,5.191447,2000,6.0,4.0
# From MPC191587
C/2023 H1 (PANSTARRS),e,21.7830,292.6464,333.7271,742.7824,0.0000487,0.99401334,0.0000,11/28.4926/2024,2000,g  8.5,4.0
# From MPEC 2026-E44
C/2023 H3 (PANSTARRS),e,2.4883,55.0784,193.2356,13.61581,0.0196173,0.61588128,15.3209,04/09.0/2026,2000,g 10.0,4.0
# From MPEC 2026-FR0
C/2023 H5 (Lemmon),h,06/30.4160/2025,97.8547,159.4730,60.1204,1.000551,4.312854,2000,7.0,4.0
# From MPEC 2026-E44
P/2023 JN16 (Lemmon),e,3.7018,11.7842,353.5147,2.697951,0.2224093,0.14772983,103.0301,04/09.0/2026,2000,g 14.0,4.0
# From MPEC 2026-E44
P/2023 M1 (PANSTARRS),e,12.2918,216.8647,79.6930,6.838569,0.0551133,0.58665500,46.6750,04/09.0/2026,2000,g 13.5,4.0
# From MPEC 2026-E44
P/2023 M2 (PANSTARRS),e,19.7138,83.2574,243.7453,5.588571,0.0746024,0.36916037,73.5580,04/09.0/2026,2000,g 12.5,4.0
# From MPEC 2026-E44
P/2023 M4 (ATLAS),e,7.5920,296.2711,320.3860,5.442565,0.0776245,0.27912401,113.1106,04/09.0/2026,2000,g  7.5,4.0
# From MPEC 2026-E44
C/2023 P1 (Nishimura),e,132.4834,66.7848,116.1904,55.93246,0.0023562,0.99599845,0.0000,09/17.5104/2023,2000,g 10.0,4.0
# From MPEC 2026-E44
C/2023 Q1 (PANSTARRS),h,12/01.0930/2024,36.6432,7.1242,84.4265,1.004758,2.576334,2000,10.0,4.0
# From MPEC 2026-E44
C/2023 Q2 (PANSTARRS),e,104.0616,92.6776,171.6553,329.6609,0.0001647,0.99026905,0.0000,06/23.7957/2024,2000,g 11.5,4.0
# From MPEC 2026-G41
C/2023 R1 (PANSTARRS),h,04/13.3878/2026,149.3151,62.5691,144.2614,1.002389,3.570071,2000,6.0,4.0
# From MPEC 2026-E44
C/2023 R2 (PANSTARRS),h,08/12.2230/2024,30.6962,188.8625,337.3411,1.000372,0.904827,2000,10.5,4.0
# From MPEC 2026-E44
C/2023 RN3 (ATLAS),e,10.3515,207.0646,130.6256,10.15977,0.0304353,0.48984238,35.7593,04/09.0/2026,2000,g  7.5,4.0
# From MPEC 2026-EC7
C/2023 RS61 (PANSTARRS),e,19.9467,347.0343,119.5310,11.89513,0.0240243,0.32797424,336.7076,04/09.0/2026,2000,g  6.8,4.0
# From MPEC 2026-E44
P/2023 S1 (PANSTARRS),e,9.1575,317.2863,180.3575,3.844884,0.1307312,0.31852370,53.4242,04/09.0/2026,2000,g 11.5,4.0
# From MPEC 2026-E44
P/2023 T1 (PANSTARRS),e,6.6121,249.5792,202.9119,4.226756,0.1134209,0.33309230,77.8119,04/09.0/2026,2000,g 14.0,4.0
# From MPEC 2026-E44
C/2023 T3 (Fuls),e,27.2180,246.0020,302.8561,976.3237,0.0000323,0.99636559,0.0000,01/25.4380/2025,2000,g  8.5,4.0
# From MPEC 2026-E44
C/2023 TD22 (Lemmon),e,170.4881,5.5790,32.5331,48.32907,0.0029335,0.95125649,1.6712,04/09.0/2026,2000,g 12.5,4.0
# From MPC191587
C/2023 U1 (Fuls),e,108.1481,305.7996,255.6688,4055,0.0000038,0.99877354,0.0000,10/13.1832/2024,2000,g  8.0,4.0
# From MPEC 2026-FR0
C/2023 V1 (Lemmon),h,07/13.0703/2025,102.0084,15.0526,103.3210,1.000371,5.092641,2000,8.5,4.0
# From MPEC 2026-FC5
P/2023 V2 (PANSTARRS),e,9.8883,95.4728,330.5147,7.215494,0.0508516,0.56968648,40.4554,04/09.0/2026,2000,g 13.5,4.0
# From MPEC 2026-E44
C/2023 V3 (PANSTARRS),e,40.6302,91.2674,291.8108,12.69548,0.0217887,0.64576661,21.3980,04/09.0/2026,2000,g 11.5,4.0
# From MPEC 2026-E44
C/2023 V4 (Camarasa-Duszanowicz),h,05/30.4522/2024,67.1062,66.3263,50.8837,1.001299,1.122126,2000,12.0,4.0
# From MPEC 2026-E44
P/2023 V6 (PANSTARRS),e,3.9819,189.4081,191.4793,5.274690,0.0813596,0.17535975,100.4375,04/09.0/2026,2000,g 11.5,4.0
# From MPEC 2026-E44
C/2023 X1 (Leonard),e,110.5941,136.9639,321.4881,155.4074,0.0005087,0.99387073,0.0000,10/17.8176/2023,2000,g 13.5,3.2
# From MPEC 2026-FR0
C/2023 X2 (Lemmon),h,12/28.4843/2025,76.9807,66.3016,64.8027,1.000086,5.088594,2000,8.5,3.2
# From MPEC 2026-E44
P/2023 X3 (PANSTARRS),e,4.4829,62.0181,40.9387,4.247337,0.1125975,0.28611220,80.6871,04/09.0/2026,2000,g 15.5,4.0
# From MPEC 2026-E44
C/2023 X4 (Hogan),e,11.5906,28.7703,100.6384,9.932180,0.0314874,0.63153151,21.5276,04/09.0/2026,2000,g 12.0,4.0
# From MPEC 2026-E44
C/2023 X7 (PANSTARRS),e,69.1275,119.2056,354.3889,4842,0.0000029,0.99900437,0.0000,05/14.9832/2025,2000,g  9.0,4.0
# From MPEC 2026-E44
P/2023 Y2 (Gibbs),e,6.9917,79.2310,16.9493,3.748526,0.1358042,0.39212675,132.1104,04/09.0/2026,2000,g 15.5,4.0
# From MPEC 2026-G41
C/2024 A1 (ATLAS),e,94.5053,112.1402,353.1973,25847,0.0000002,0.99985011,0.0000,06/12.9796/2025,2000,g  7.0,4.0
# From MPEC 2026-E44
C/2024 A2 (ATLAS),e,119.1174,78.1700,295.5007,32.14020,0.0054092,0.94149985,3.8424,04/09.0/2026,2000,g 12.5,4.0
# From MPEC 2026-E44
C/2024 B1 (Lemmon),h,10/07.7806/2024,70.8948,79.1884,66.2280,1.001227,1.633885,2000,13.0,4.0
# From MPEC 2026-E44
C/2024 B2 (Lemmon),e,99.8729,294.3879,130.3175,1217,0.0000232,0.99664762,0.0000,10/05.3080/2023,2000,g 11.5,4.0
# From MPEC 2026-E44
C/2024 C1 (PANSTARRS),e,14.2259,83.8116,94.5156,10.59680,0.0285721,0.58353503,16.7331,04/09.0/2026,2000,g 11.5,4.0
# From MPEC 2026-E44
C/2024 C2 (PANSTARRS),e,27.2837,66.4549,87.6370,16.25142,0.0150441,0.44669384,5.8986,04/09.0/2026,2000,g  6.0,4.0
# From MPEC 2026-E44
C/2024 C3 (PANSTARRS),e,22.4479,359.6970,159.7676,11.68269,0.0246825,0.42527785,21.7478,04/09.0/2026,2000,g  9.0,4.0
# From MPEC 2026-E43
C/2024 D1 (Lemmon),e,132.4479,179.6531,125.8008,23255,0.0000003,0.99971226,0.0000,12/03.6200/2027,2000,g  7.3,4.0
# From MPEC 2026-G41
C/2024 E1 (Wierzchos),h,01/20.7708/2026,75.2397,108.0799,243.6244,1.000218,0.566142,2000,7.0,4.0
# From MPEC 2026-E44
C/2024 E2 (Bok),e,155.6527,135.6597,358.2090,51.11239,0.0026972,0.84937018,2.4173,04/09.0/2026,2000,g  8.0,4.0
# From MPEC 2026-E44
P/2024 F1 (PANSTARRS),e,7.0068,251.5167,229.5994,3.446363,0.1540503,0.46023243,138.0516,04/09.0/2026,2000,g 16.0,4.0
# From MPEC 2026-FR0
